<?xml version="1.0" encoding="UTF-8"?>
<ndm xmlns:xsi="http://www.w3.org/2001/XMLSchema-instance" xsi:noNamespaceSchemaLocation="https://sanaregistry.org/r/ndmxml_unqualified/ndmxml-2.0.0-master-2.0.xsd">
<omm id="CCSDS_OMM_VERS" version="2.0">
<header><CREATION_DATE/><ORIGINATOR/></header><body><segment><metadata><OBJECT_NAME>ORBCOMM FM24</OBJECT_NAME><OBJECT_ID>1998-053D</OBJECT_ID><CENTER_NAME>EARTH</CENTER_NAME><REF_FRAME>TEME</REF_FRAME><TIME_SYSTEM>UTC</TIME_SYSTEM><MEAN_ELEMENT_THEORY>SGP4</MEAN_ELEMENT_THEORY></metadata><data><meanElements><EPOCH>2024-10-12T11:29:19.209120</EPOCH><MEAN_MOTION>14.36663547</MEAN_MOTION><ECCENTRICITY>.0000814</ECCENTRICITY><INCLINATION>45.0091</INCLINATION><RA_OF_ASC_NODE>2.4598</RA_OF_ASC_NODE><ARG_OF_PERICENTER>269.1970</ARG_OF_PERICENTER><MEAN_ANOMALY>90.8784</MEAN_ANOMALY></meanElements><tleParameters><EPHEMERIS_TYPE>0</EPHEMERIS_TYPE><CLASSIFICATION_TYPE>U</CLASSIFICATION_TYPE><NORAD_CAT_ID>25478</NORAD_CAT_ID><ELEMENT_SET_NO>999</ELEMENT_SET_NO><REV_AT_EPOCH>36180</REV_AT_EPOCH><BSTAR>.17911E-2</BSTAR><MEAN_MOTION_DOT>.5184E-4</MEAN_MOTION_DOT><MEAN_MOTION_DDOT>0</MEAN_MOTION_DDOT></tleParameters></data></segment></body></omm>
<omm id="CCSDS_OMM_VERS" version="2.0">
<header><CREATION_DATE/><ORIGINATOR/></header><body><segment><metadata><OBJECT_NAME>ORBCOMM FM25</OBJECT_NAME><OBJECT_ID>1998-053E</OBJECT_ID><CENTER_NAME>EARTH</CENTER_NAME><REF_FRAME>TEME</REF_FRAME><TIME_SYSTEM>UTC</TIME_SYSTEM><MEAN_ELEMENT_THEORY>SGP4</MEAN_ELEMENT_THEORY></metadata><data><meanElements><EPOCH>2024-10-12T12:23:36.695616</EPOCH><MEAN_MOTION>14.36652405</MEAN_MOTION><ECCENTRICITY>.000168</ECCENTRICITY><INCLINATION>45.0083</INCLINATION><RA_OF_ASC_NODE>0.5344</RA_OF_ASC_NODE><ARG_OF_PERICENTER>97.2626</ARG_OF_PERICENTER><MEAN_ANOMALY>262.8413</MEAN_ANOMALY></meanElements><tleParameters><EPHEMERIS_TYPE>0</EPHEMERIS_TYPE><CLASSIFICATION_TYPE>U</CLASSIFICATION_TYPE><NORAD_CAT_ID>25479</NORAD_CAT_ID><ELEMENT_SET_NO>999</ELEMENT_SET_NO><REV_AT_EPOCH>36210</REV_AT_EPOCH><BSTAR>.17189E-2</BSTAR><MEAN_MOTION_DOT>.4968E-4</MEAN_MOTION_DOT><MEAN_MOTION_DDOT>0</MEAN_MOTION_DDOT></tleParameters></data></segment></body></omm>
<omm id="CCSDS_OMM_VERS" version="2.0">
<header><CREATION_DATE/><ORIGINATOR/></header><body><segment><metadata><OBJECT_NAME>ORBCOMM FM26</OBJECT_NAME><OBJECT_ID>1998-053F</OBJECT_ID><CENTER_NAME>EARTH</CENTER_NAME><REF_FRAME>TEME</REF_FRAME><TIME_SYSTEM>UTC</TIME_SYSTEM><MEAN_ELEMENT_THEORY>SGP4</MEAN_ELEMENT_THEORY></metadata><data><meanElements><EPOCH>2024-10-12T10:48:58.033152</EPOCH><MEAN_MOTION>14.35929321</MEAN_MOTION><ECCENTRICITY>.0004081</ECCENTRICITY><INCLINATION>45.0081</INCLINATION><RA_OF_ASC_NODE>355.6940</RA_OF_ASC_NODE><ARG_OF_PERICENTER>119.9392</ARG_OF_PERICENTER><MEAN_ANOMALY>240.1861</MEAN_ANOMALY></meanElements><tleParameters><EPHEMERIS_TYPE>0</EPHEMERIS_TYPE><CLASSIFICATION_TYPE>U</CLASSIFICATION_TYPE><NORAD_CAT_ID>25480</NORAD_CAT_ID><ELEMENT_SET_NO>999</ELEMENT_SET_NO><REV_AT_EPOCH>36202</REV_AT_EPOCH><BSTAR>.15644E-2</BSTAR><MEAN_MOTION_DOT>.4442E-4</MEAN_MOTION_DOT><MEAN_MOTION_DDOT>0</MEAN_MOTION_DDOT></tleParameters></data></segment></body></omm>
<omm id="CCSDS_OMM_VERS" version="2.0">
<header><CREATION_DATE/><ORIGINATOR/></header><body><segment><metadata><OBJECT_NAME>ORBCOMM FM27</OBJECT_NAME><OBJECT_ID>1998-053G</OBJECT_ID><CENTER_NAME>EARTH</CENTER_NAME><REF_FRAME>TEME</REF_FRAME><TIME_SYSTEM>UTC</TIME_SYSTEM><MEAN_ELEMENT_THEORY>SGP4</MEAN_ELEMENT_THEORY></metadata><data><meanElements><EPOCH>2024-10-12T12:08:15.148032</EPOCH><MEAN_MOTION>14.36639684</MEAN_MOTION><ECCENTRICITY>.0002319</ECCENTRICITY><INCLINATION>45.0068</INCLINATION><RA_OF_ASC_NODE>0.8417</RA_OF_ASC_NODE><ARG_OF_PERICENTER>252.0151</ARG_OF_PERICENTER><MEAN_ANOMALY>108.0444</MEAN_ANOMALY></meanElements><tleParameters><EPHEMERIS_TYPE>0</EPHEMERIS_TYPE><CLASSIFICATION_TYPE>U</CLASSIFICATION_TYPE><NORAD_CAT_ID>25481</NORAD_CAT_ID><ELEMENT_SET_NO>999</ELEMENT_SET_NO><REV_AT_EPOCH>36203</REV_AT_EPOCH><BSTAR>.16102E-2</BSTAR><MEAN_MOTION_DOT>.4644E-4</MEAN_MOTION_DOT><MEAN_MOTION_DDOT>0</MEAN_MOTION_DDOT></tleParameters></data></segment></body></omm>
<omm id="CCSDS_OMM_VERS" version="2.0">
<header><CREATION_DATE/><ORIGINATOR/></header><body><segment><metadata><OBJECT_NAME>ORBCOMM FM28</OBJECT_NAME><OBJECT_ID>1998-053H</OBJECT_ID><CENTER_NAME>EARTH</CENTER_NAME><REF_FRAME>TEME</REF_FRAME><TIME_SYSTEM>UTC</TIME_SYSTEM><MEAN_ELEMENT_THEORY>SGP4</MEAN_ELEMENT_THEORY></metadata><data><meanElements><EPOCH>2024-10-12T10:46:12.844128</EPOCH><MEAN_MOTION>14.36980237</MEAN_MOTION><ECCENTRICITY>.0002245</ECCENTRICITY><INCLINATION>45.0054</INCLINATION><RA_OF_ASC_NODE>299.1003</RA_OF_ASC_NODE><ARG_OF_PERICENTER>165.5069</ARG_OF_PERICENTER><MEAN_ANOMALY>194.5843</MEAN_ANOMALY></meanElements><tleParameters><EPHEMERIS_TYPE>0</EPHEMERIS_TYPE><CLASSIFICATION_TYPE>U</CLASSIFICATION_TYPE><NORAD_CAT_ID>25482</NORAD_CAT_ID><ELEMENT_SET_NO>999</ELEMENT_SET_NO><REV_AT_EPOCH>36270</REV_AT_EPOCH><BSTAR>.18828E-2</BSTAR><MEAN_MOTION_DOT>.5493E-4</MEAN_MOTION_DOT><MEAN_MOTION_DDOT>0</MEAN_MOTION_DDOT></tleParameters></data></segment></body></omm>
<omm id="CCSDS_OMM_VERS" version="2.0">
<header><CREATION_DATE/><ORIGINATOR/></header><body><segment><metadata><OBJECT_NAME>ORBCOMM FM30</OBJECT_NAME><OBJECT_ID>1999-065A</OBJECT_ID><CENTER_NAME>EARTH</CENTER_NAME><REF_FRAME>TEME</REF_FRAME><TIME_SYSTEM>UTC</TIME_SYSTEM><MEAN_ELEMENT_THEORY>SGP4</MEAN_ELEMENT_THEORY></metadata><data><meanElements><EPOCH>2024-10-12T09:32:47.305536</EPOCH><MEAN_MOTION>14.36079122</MEAN_MOTION><ECCENTRICITY>.0005459</ECCENTRICITY><INCLINATION>45.0303</INCLINATION><RA_OF_ASC_NODE>181.6230</RA_OF_ASC_NODE><ARG_OF_PERICENTER>208.4005</ARG_OF_PERICENTER><MEAN_ANOMALY>151.6546</MEAN_ANOMALY></meanElements><tleParameters><EPHEMERIS_TYPE>0</EPHEMERIS_TYPE><CLASSIFICATION_TYPE>U</CLASSIFICATION_TYPE><NORAD_CAT_ID>25980</NORAD_CAT_ID><ELEMENT_SET_NO>999</ELEMENT_SET_NO><REV_AT_EPOCH>29881</REV_AT_EPOCH><BSTAR>.18237E-2</BSTAR><MEAN_MOTION_DOT>.5219E-4</MEAN_MOTION_DOT><MEAN_MOTION_DDOT>0</MEAN_MOTION_DDOT></tleParameters></data></segment></body></omm>
<omm id="CCSDS_OMM_VERS" version="2.0">
<header><CREATION_DATE/><ORIGINATOR/></header><body><segment><metadata><OBJECT_NAME>ORBCOMM FM31</OBJECT_NAME><OBJECT_ID>1999-065B</OBJECT_ID><CENTER_NAME>EARTH</CENTER_NAME><REF_FRAME>TEME</REF_FRAME><TIME_SYSTEM>UTC</TIME_SYSTEM><MEAN_ELEMENT_THEORY>SGP4</MEAN_ELEMENT_THEORY></metadata><data><meanElements><EPOCH>2024-10-12T10:25:04.480032</EPOCH><MEAN_MOTION>14.36050141</MEAN_MOTION><ECCENTRICITY>.0002961</ECCENTRICITY><INCLINATION>45.0215</INCLINATION><RA_OF_ASC_NODE>175.0461</RA_OF_ASC_NODE><ARG_OF_PERICENTER>238.9247</ARG_OF_PERICENTER><MEAN_ANOMALY>121.1310</MEAN_ANOMALY></meanElements><tleParameters><EPHEMERIS_TYPE>0</EPHEMERIS_TYPE><CLASSIFICATION_TYPE>U</CLASSIFICATION_TYPE><NORAD_CAT_ID>25981</NORAD_CAT_ID><ELEMENT_SET_NO>999</ELEMENT_SET_NO><REV_AT_EPOCH>29837</REV_AT_EPOCH><BSTAR>.16451E-2</BSTAR><MEAN_MOTION_DOT>.469E-4</MEAN_MOTION_DOT><MEAN_MOTION_DDOT>0</MEAN_MOTION_DDOT></tleParameters></data></segment></body></omm>
<omm id="CCSDS_OMM_VERS" version="2.0">
<header><CREATION_DATE/><ORIGINATOR/></header><body><segment><metadata><OBJECT_NAME>ORBCOMM FM32</OBJECT_NAME><OBJECT_ID>1999-065C</OBJECT_ID><CENTER_NAME>EARTH</CENTER_NAME><REF_FRAME>TEME</REF_FRAME><TIME_SYSTEM>UTC</TIME_SYSTEM><MEAN_ELEMENT_THEORY>SGP4</MEAN_ELEMENT_THEORY></metadata><data><meanElements><EPOCH>2024-10-12T10:52:32.207520</EPOCH><MEAN_MOTION>14.35074931</MEAN_MOTION><ECCENTRICITY>.0005021</ECCENTRICITY><INCLINATION>45.0146</INCLINATION><RA_OF_ASC_NODE>189.8487</RA_OF_ASC_NODE><ARG_OF_PERICENTER>239.9773</ARG_OF_PERICENTER><MEAN_ANOMALY>120.0577</MEAN_ANOMALY></meanElements><tleParameters><EPHEMERIS_TYPE>0</EPHEMERIS_TYPE><CLASSIFICATION_TYPE>U</CLASSIFICATION_TYPE><NORAD_CAT_ID>25982</NORAD_CAT_ID><ELEMENT_SET_NO>999</ELEMENT_SET_NO><REV_AT_EPOCH>29899</REV_AT_EPOCH><BSTAR>.18804E-2</BSTAR><MEAN_MOTION_DOT>.5275E-4</MEAN_MOTION_DOT><MEAN_MOTION_DDOT>0</MEAN_MOTION_DDOT></tleParameters></data></segment></body></omm>

</ndm>
