ORBCOMM FM24            
1 25478U 98053D   24286.47869455  .00005184  00000+0  17911-2 0  9999
2 25478  45.0091   2.4598 0000814 269.1970  90.8784 14.36663547361801
ORBCOMM FM25            
1 25479U 98053E   24286.51639694  .00004968  00000+0  17189-2 0  9991
2 25479  45.0083   0.5344 0001680  97.2626 262.8413 14.36652405362106
ORBCOMM FM26            
1 25480U 98053F   24286.45067168  .00004442  00000+0  15644-2 0  9998
2 25480  45.0081 355.6940 0004081 119.9392 240.1861 14.35929321362022
ORBCOMM FM27            
1 25481U 98053G   24286.50573088  .00004644  00000+0  16102-2 0  9992
2 25481  45.0068   0.8417 0002319 252.0151 108.0444 14.36639684362031
ORBCOMM FM28            
1 25482U 98053H   24286.44875977  .00005493  00000+0  18828-2 0  9998
2 25482  45.0054 299.1003 0002245 165.5069 194.5843 14.36980237362705
ORBCOMM FM30            
1 25980U 99065A   24286.39776974  .00005219  00000+0  18237-2 0  9996
2 25980  45.0303 181.6230 0005459 208.4005 151.6546 14.36079122298815
ORBCOMM FM31            
1 25981U 99065B   24286.43407963  .00004690  00000+0  16451-2 0  9999
2 25981  45.0215 175.0461 0002961 238.9247 121.1310 14.36050141298374
ORBCOMM FM32            
1 25982U 99065C   24286.45315055  .00005275  00000+0  18804-2 0  9996
2 25982  45.0146 189.8487 0005021 239.9773 120.0577 14.35074931298997
